{"version": 0.6, "generator": "Overpass API 0.7.62.1 084b4234", "osm3s": {"timestamp_osm_base": "2024-04-10T04:10:47Z", "copyright": "The data included in this document is from www.openstreetmap.org. The data is made available under ODbL."}, "elements": [{"type": "node", "id": 919327915, "lat": 30.2483397, "lon": -97.7711334, "tags": {"amenity": "pub", "name": "Black Sheep Lodge"}}, {"type": "node", "id": 3281003849, "lat": 30.2489743, "lon": -97.7689416, "tags": {"amenity": "restaurant", "cuisine": "mexican", "name": "El Meson", "not:brand:wikidata": "Q5351585"}}, {"type": "node", "id": 3856422115, "lat": 30.247346, "lon": -97.772649}, {"type": "node", "id": 3856422125, "lat": 30.247371, "lon": -97.77256}, {"type": "node", "id": 3856422137, "lat": 30.247434, "lon": -97.772584}, {"type": "node", "id": 3856422138, "lat": 30.247438, "lon": -97.772571}, {"type": "node", "id": 3856422142, "lat": 30.247468, "lon": -97.772695}, {"type": "node", "id": 3856422143, "lat": 30.247476, "lon": -97.772666}, {"type": "node", "id": 3856422144, "lat": 30.247487, "lon": -97.77267}, {"type": "node", "id": 3856422145, "lat": 30.247492, "lon": -97.772654}, {"type": "node", "id": 3856422147, "lat": 30.247503, "lon": -97.772658}, {"type": "node", "id": 3856422148, "lat": 30.247519, "lon": -97.772602}, {"type": "node", "id": 3856493856, "lat": 30.248104, "lon": -97.769321}, {"type": "node", "id": 3856493866, "lat": 30.248121, "lon": -97.769261}, {"type": "node", "id": 3856493890, "lat": 30.248155, "lon": -97.769385}, {"type": "node", "id": 3856493897, "lat": 30.248167, "lon": -97.769345}, {"type": "node", "id": 3856493918, "lat": 30.248188, "lon": -97.769287}, {"type": "node", "id": 3856493923, "lat": 30.248195, "lon": -97.769266}, {"type": "node", "id": 3856493924, "lat": 30.248198, "lon": -97.769267}, {"type": "node", "id": 3856494146, "lat": 30.248416, "lon": -97.769485}, {"type": "node", "id": 3856494160, "lat": 30.248451, "lon": -97.769364}, {"type": "node", "id": 3856494441, "lat": 30.248809, "lon": -97.769516}, {"type": "node", "id": 3856494473, "lat": 30.248834, "lon": -97.769424}, {"type": "node", "id": 3856494494, "lat": 30.24885, "lon": -97.76943}, {"type": "node", "id": 3856494615, "lat": 30.24895, "lon": -97.769466}, {"type": "node", "id": 3856494619, "lat": 30.248954, "lon": -97.769453}, {"type": "node", "id": 3856494670, "lat": 30.249005, "lon": -97.769588}, {"type": "node", "id": 3856494696, "lat": 30.249034, "lon": -97.769482}, {"type": "node", "id": 5771933660, "lat": 30.2478111, "lon": -97.7712879, "tags": {"amenity": "restaurant", "name": "Loro"}}, {"type": "node", "id": 10865943771, "lat": 30.2479438, "lon": -97.7724021, "tags": {"addr:housenumber": "2120", "addr:street": "S Lamar Blvd", "amenity": "restaurant", "cuisine": "greek;mexican", "description": "Greek with a hint of Mexican", "name": "Ziki", "opening_hours": "Mo-Su 10:00-03:00", "takeaway": "yes", "website": "https://ziki.ktchen"}}, {"type": "node", "id": 10869755721, "lat": 30.2482393, "lon": -97.7714173, "tags": {"amenity": "restaurant", "name": "Aviary Wine & Kitchen"}}, {"type": "way", "id": 382444313, "nodes": [3856422125, 3856422115, 3856422142, 3856422143, 3856422144, 3856422145, 3856422147, 3856422148, 3856422138, 3856422137, 3856422125], "tags": {"addr:housenumber": "2159", "addr:street": "South Lamar Boulevard", "amenity": "cafe", "building": "yes", "height": "3.7", "name": "Patika"}}, {"type": "way", "id": 382450478, "nodes": [3856493924, 3856493923, 3856493918, 3856493866, 3856493856, 3856493897, 3856493890, 3856494146, 3856494160, 3856493924], "tags": {"addr:housenumber": "2043", "addr:street": "South Lamar Boulevard", "amenity": "cafe", "building": "yes", "height": "29.5", "name": "Proud Mary", "outdoor_seating": "yes", "takeaway": "yes"}}, {"type": "way", "id": 382450481, "nodes": [3856494494, 3856494473, 3856494441, 3856494670, 3856494696, 3856494619, 3856494615, 3856494494], "tags": {"addr:housenumber": "2050", "addr:street": "South Lamar Boulevard", "amenity": "cafe", "building": "yes", "cuisine": "greek", "height": "6.7", "name": "OPA! Coffe & Wine Bar"}}]}