{"version": 0.6, "generator": "Overpass API 0.7.62.1 084b4234", "osm3s": {"timestamp_osm_base": "2024-04-10T03:18:23Z", "copyright": "The data included in this document is from www.openstreetmap.org. The data is made available under ODbL."}, "elements": [{"type": "node", "id": 530785813, "lat": 30.341561, "lon": -97.7391639, "tags": {"addr:city": "Austin", "addr:housenumber": "6534", "addr:postcode": "78757", "addr:state": "TX", "addr:street": "Burnet Road", "amenity": "restaurant", "cuisine": "mexican", "description": "\u00a1Al Estilo Jalisco! Jalisco Style!", "name": "Taqueria Guadalajara Arandas", "opening_hours": "Mo-Sa 08:00-20:00; Su 08:00-15:00", "phone": "+1-512-452-9886", "takeaway": "yes", "website": "https://taqueriasarandasaustin.com/", "wheelchair": "yes"}}, {"type": "node", "id": 3190873012, "lat": 30.3413397, "lon": -97.738314, "tags": {"addr:city": "Austin", "addr:housenumber": "6555", "addr:postcode": "78757", "addr:state": "TX", "addr:street": "Burnet Road", "addr:unit": "400", "amenity": "restaurant", "cuisine": "american", "name": "Barley Swine"}}, {"type": "node", "id": 5581053974, "lat": 30.3410897, "lon": -97.7383417, "tags": {"addr:city": "Austin", "addr:housenumber": "6555", "addr:postcode": "78757", "addr:state": "TX", "addr:street": "Burnet Road", "addr:unit": "100", "amenity": "restaurant", "cuisine": "italian;pizza", "name": "Bufalina Due"}}, {"type": "node", "id": 9809975599, "lat": 30.3430607, "lon": -97.7392501, "tags": {"addr:housenumber": "6700", "addr:street": "Burnet Road", "amenity": "restaurant", "cuisine": "american", "name": "Fat City"}}]}