{"version": 0.6, "generator": "Overpass API 0.7.62.1 084b4234", "osm3s": {"timestamp_osm_base": "2024-04-10T03:20:24Z", "copyright": "The data included in this document is from www.openstreetmap.org. The data is made available under ODbL."}, "elements": [{"type": "node", "id": 919327830, "lat": 30.2496256, "lon": -97.7663914, "tags": {"amenity": "restaurant", "cuisine": "mexican;tacos", "name": "Masa y Mas"}}, {"type": "node", "id": 919327832, "lat": 30.2499685, "lon": -97.7670565, "tags": {"addr:housenumber": "1816", "addr:postcode": "78704", "addr:street": "South Lamar Boulevard", "amenity": "restaurant", "cuisine": "mexican", "name": "Sazon", "phone": "+1-512-326-4395"}}, {"type": "node", "id": 3281003849, "lat": 30.2489743, "lon": -97.7689416, "tags": {"amenity": "restaurant", "cuisine": "mexican", "name": "El Meson", "not:brand:wikidata": "Q5351585"}}, {"type": "node", "id": 3856493856, "lat": 30.248104, "lon": -97.769321}, {"type": "node", "id": 3856493866, "lat": 30.248121, "lon": -97.769261}, {"type": "node", "id": 3856493870, "lat": 30.248129, "lon": -97.768803}, {"type": "node", "id": 3856493890, "lat": 30.248155, "lon": -97.769385}, {"type": "node", "id": 3856493891, "lat": 30.248157, "lon": -97.768666}, {"type": "node", "id": 3856493897, "lat": 30.248167, "lon": -97.769345}, {"type": "node", "id": 3856493898, "lat": 30.248168, "lon": -97.768631}, {"type": "node", "id": 3856493899, "lat": 30.248169, "lon": -97.768671}, {"type": "node", "id": 3856493912, "lat": 30.248183, "lon": -97.768825}, {"type": "node", "id": 3856493916, "lat": 30.248188, "lon": -97.768639}, {"type": "node", "id": 3856493917, "lat": 30.248188, "lon": -97.768807}, {"type": "node", "id": 3856493918, "lat": 30.248188, "lon": -97.769287}, {"type": "node", "id": 3856493923, "lat": 30.248195, "lon": -97.769266}, {"type": "node", "id": 3856493924, "lat": 30.248198, "lon": -97.769267}, {"type": "node", "id": 3856493931, "lat": 30.248206, "lon": -97.768814}, {"type": "node", "id": 3856493937, "lat": 30.248216, "lon": -97.76878}, {"type": "node", "id": 3856493939, "lat": 30.248221, "lon": -97.768531}, {"type": "node", "id": 3856493950, "lat": 30.248232, "lon": -97.768786}, {"type": "node", "id": 3856494063, "lat": 30.248247, "lon": -97.768738}, {"type": "node", "id": 3856494074, "lat": 30.248261, "lon": -97.768672}, {"type": "node", "id": 3856494076, "lat": 30.248268, "lon": -97.768747}, {"type": "node", "id": 3856494078, "lat": 30.248271, "lon": -97.768627}, {"type": "node", "id": 3856494080, "lat": 30.248273, "lon": -97.768553}, {"type": "node", "id": 3856494082, "lat": 30.248274, "lon": -97.768629}, {"type": "node", "id": 3856494087, "lat": 30.248279, "lon": -97.768566}, {"type": "node", "id": 3856494089, "lat": 30.24828, "lon": -97.768599}, {"type": "node", "id": 3856494090, "lat": 30.248282, "lon": -97.768556}, {"type": "node", "id": 3856494091, "lat": 30.248287, "lon": -97.768682}, {"type": "node", "id": 3856494093, "lat": 30.248291, "lon": -97.768603}, {"type": "node", "id": 3856494101, "lat": 30.2483, "lon": -97.768575}, {"type": "node", "id": 3856494146, "lat": 30.248416, "lon": -97.769485}, {"type": "node", "id": 3856494160, "lat": 30.248451, "lon": -97.769364}, {"type": "node", "id": 3856494441, "lat": 30.248809, "lon": -97.769516}, {"type": "node", "id": 3856494473, "lat": 30.248834, "lon": -97.769424}, {"type": "node", "id": 3856494494, "lat": 30.24885, "lon": -97.76943}, {"type": "node", "id": 3856494615, "lat": 30.24895, "lon": -97.769466}, {"type": "node", "id": 3856494619, "lat": 30.248954, "lon": -97.769453}, {"type": "node", "id": 3856494670, "lat": 30.249005, "lon": -97.769588}, {"type": "node", "id": 3856494696, "lat": 30.249034, "lon": -97.769482}, {"type": "node", "id": 3856495051, "lat": 30.249354, "lon": -97.766927}, {"type": "node", "id": 3856495074, "lat": 30.249375, "lon": -97.766966}, {"type": "node", "id": 3856495085, "lat": 30.249385, "lon": -97.766951}, {"type": "node", "id": 3856495103, "lat": 30.249397, "lon": -97.766984}, {"type": "node", "id": 3856495114, "lat": 30.249406, "lon": -97.766987}, {"type": "node", "id": 3856495120, "lat": 30.249423, "lon": -97.766986}, {"type": "node", "id": 3856495130, "lat": 30.249432, "lon": -97.766798}, {"type": "node", "id": 3856495132, "lat": 30.249435, "lon": -97.766977}, {"type": "node", "id": 3856495135, "lat": 30.249438, "lon": -97.766802}, {"type": "node", "id": 3856495146, "lat": 30.249451, "lon": -97.766925}, {"type": "node", "id": 3856495151, "lat": 30.249455, "lon": -97.766917}, {"type": "node", "id": 3856495155, "lat": 30.249458, "lon": -97.766769}, {"type": "node", "id": 3856495159, "lat": 30.24946, "lon": -97.766935}, {"type": "node", "id": 3856495161, "lat": 30.249462, "lon": -97.766763}, {"type": "node", "id": 3856495181, "lat": 30.249482, "lon": -97.766938}, {"type": "node", "id": 3856495190, "lat": 30.249492, "lon": -97.766855}, {"type": "node", "id": 3856495220, "lat": 30.249519, "lon": -97.766876}, {"type": "node", "id": 3856495222, "lat": 30.24952, "lon": -97.766809}, {"type": "node", "id": 4633713972, "lat": 30.249264, "lon": -97.7687653, "tags": {"addr:city": "Austin", "addr:housenumber": "2032", "addr:postcode": "78704", "addr:state": "TX", "addr:street": "South Lamar Boulevard", "amenity": "bar", "name": "Hopscotch"}}, {"type": "node", "id": 4639135648, "lat": 30.2508607, "lon": -97.7659325, "tags": {"amenity": "restaurant", "cuisine": "brunch", "name": "Snooze"}}, {"type": "node", "id": 4653522069, "lat": 30.2492382, "lon": -97.7688789, "tags": {"amenity": "bar", "name": "The Golden Goose"}}, {"type": "node", "id": 11492466914, "lat": 30.2491556, "lon": -97.768525, "tags": {"addr:city": "Austin", "addr:housenumber": "2026", "addr:postcode": "78704", "addr:state": "TX", "addr:street": "South Lamar Boulevard", "amenity": "restaurant", "name": "Elementary"}}, {"type": "node", "id": 11492466915, "lat": 30.2491788, "lon": -97.7684445, "tags": {"addr:city": "Austin", "addr:housenumber": "2024", "addr:postcode": "78704", "addr:state": "TX", "addr:street": "South Lamar Boulevard", "amenity": "restaurant", "cuisine": "thai", "name": "Super Thai Cuisine"}}, {"type": "way", "id": 382450325, "nodes": [3856495155, 3856495135, 3856495130, 3856495051, 3856495085, 3856495074, 3856495103, 3856495114, 3856495120, 3856495132, 3856495159, 3856495146, 3856495151, 3856495181, 3856495220, 3856495190, 3856495222, 3856495161, 3856495155], "tags": {"addr:housenumber": "1901", "addr:street": "South Lamar Boulevard", "amenity": "bar", "building": "yes", "height": "6.3", "name": "Corner Bar"}}, {"type": "way", "id": 382450463, "nodes": [3856494080, 3856493939, 3856493916, 3856493898, 3856493891, 3856493899, 3856493870, 3856493912, 3856493917, 3856493931, 3856493937, 3856493950, 3856494063, 3856494076, 3856494091, 3856494074, 3856494082, 3856494078, 3856494089, 3856494093, 3856494101, 3856494087, 3856494090, 3856494080], "tags": {"addr:housenumber": "2027", "addr:street": "South Lamar Boulevard", "amenity": "bar", "building": "yes", "height": "8.7", "name": "Bouldin Acres"}}, {"type": "way", "id": 382450478, "nodes": [3856493924, 3856493923, 3856493918, 3856493866, 3856493856, 3856493897, 3856493890, 3856494146, 3856494160, 3856493924], "tags": {"addr:housenumber": "2043", "addr:street": "South Lamar Boulevard", "amenity": "cafe", "building": "yes", "height": "29.5", "name": "Proud Mary", "outdoor_seating": "yes", "takeaway": "yes"}}, {"type": "way", "id": 382450481, "nodes": [3856494494, 3856494473, 3856494441, 3856494670, 3856494696, 3856494619, 3856494615, 3856494494], "tags": {"addr:housenumber": "2050", "addr:street": "South Lamar Boulevard", "amenity": "cafe", "building": "yes", "cuisine": "greek", "height": "6.7", "name": "OPA! Coffe & Wine Bar"}}]}