{"version": 0.6, "generator": "Overpass API 0.7.62.1 084b4234", "osm3s": {"timestamp_osm_base": "2024-04-10T04:11:52Z", "copyright": "The data included in this document is from www.openstreetmap.org. The data is made available under ODbL."}, "elements": [{"type": "node", "id": 530785813, "lat": 30.341561, "lon": -97.7391639, "tags": {"addr:city": "Austin", "addr:housenumber": "6534", "addr:postcode": "78757", "addr:state": "TX", "addr:street": "Burnet Road", "amenity": "restaurant", "cuisine": "mexican", "description": "\u00a1Al Estilo Jalisco! Jalisco Style!", "name": "Taqueria Guadalajara Arandas", "opening_hours": "Mo-Sa 08:00-20:00; Su 08:00-15:00", "phone": "+1-512-452-9886", "takeaway": "yes", "website": "https://taqueriasarandasaustin.com/", "wheelchair": "yes"}}, {"type": "node", "id": 530786307, "lat": 30.3402379, "lon": -97.73864, "tags": {"addr:city": "Austin", "addr:housenumber": "6507", "addr:postcode": "78757", "addr:state": "TX", "addr:street": "Burnet Road", "amenity": "bar", "name": "The Aristocrat", "opening_hours:covid19": "closed", "phone": "+1-512-363-5288"}}, {"type": "node", "id": 3190873012, "lat": 30.3413397, "lon": -97.738314, "tags": {"addr:city": "Austin", "addr:housenumber": "6555", "addr:postcode": "78757", "addr:state": "TX", "addr:street": "Burnet Road", "addr:unit": "400", "amenity": "restaurant", "cuisine": "american", "name": "Barley Swine"}}, {"type": "node", "id": 3849690350, "lat": 30.3399165, "lon": -97.7386683}, {"type": "node", "id": 3849690478, "lat": 30.3399476, "lon": -97.7387583}, {"type": "node", "id": 3849690569, "lat": 30.3400195, "lon": -97.7386205}, {"type": "node", "id": 3849690610, "lat": 30.3400507, "lon": -97.7387104}, {"type": "node", "id": 5581053974, "lat": 30.3410897, "lon": -97.7383417, "tags": {"addr:city": "Austin", "addr:housenumber": "6555", "addr:postcode": "78757", "addr:state": "TX", "addr:street": "Burnet Road", "addr:unit": "100", "amenity": "restaurant", "cuisine": "italian;pizza", "name": "Bufalina Due"}}, {"type": "way", "id": 381804125, "nodes": [3849690610, 3849690569, 3849690350, 3849690478, 3849690610], "tags": {"addr:city": "Austin", "addr:housenumber": "6425", "addr:postcode": "78757", "addr:state": "TX", "addr:street": "Burnet Road", "amenity": "restaurant", "building": "yes", "check_date:opening_hours": "2023-03-27", "delivery": "yes", "diet:vegan": "yes", "height": "6.0", "name": "Happy Chicks", "opening_hours": "Su-Sa 10:30-22:00", "opening_hours:signed": "no", "outdoor_seating": "yes", "phone": "+1-512-467-4209", "takeaway": "yes", "website": "https://www.happychicks.com/", "wheelchair": "yes"}}]}