{"version": 0.6, "generator": "Overpass API 0.7.62.1 084b4234", "osm3s": {"timestamp_osm_base": "2024-04-10T03:08:00Z", "copyright": "The data included in this document is from www.openstreetmap.org. The data is made available under ODbL."}, "elements": [{"type": "node", "id": 3856643356, "lat": 30.2188189, "lon": -97.7957371}, {"type": "node", "id": 3856643369, "lat": 30.218832, "lon": -97.7957288}, {"type": "node", "id": 3856643388, "lat": 30.2188492, "lon": -97.7958013}, {"type": "node", "id": 3856643517, "lat": 30.2189854, "lon": -97.7957153}, {"type": "node", "id": 3856650616, "lat": 30.217993, "lon": -97.79637, "tags": {"addr:housenumber": "5320", "addr:postcode": "78745", "addr:street": "Manchaca Road", "amenity": "cafe", "cuisine": "coffee_shop", "name": "Captain quackenbush's coffeehouse"}}, {"type": "node", "id": 3856650618, "lat": 30.217862, "lon": -97.796455, "tags": {"addr:housenumber": "5324", "addr:postcode": "78745", "addr:street": "Manchaca Road", "amenity": "cafe", "cuisine": "coffee_shop", "name": "Captain Quakenbush's Coffeehouse"}}, {"type": "node", "id": 3856650619, "lat": 30.217802, "lon": -97.796492, "tags": {"addr:housenumber": "5326", "addr:postcode": "78745", "addr:street": "Manchaca Road", "amenity": "cafe", "name": "Lazydaze"}}, {"type": "node", "id": 3856650620, "lat": 30.2178088, "lon": -97.796552, "tags": {"addr:housenumber": "5328", "addr:postcode": "78745", "addr:street": "Manchaca Road", "amenity": "cafe", "name": "lazydazy"}}, {"type": "node", "id": 8926674776, "lat": 30.2189551, "lon": -97.795651}, {"type": "way", "id": 382464706, "nodes": [3856643369, 3856643356, 3856643388, 3856643517, 8926674776, 3856643369], "tags": {"addr:city": "Austin", "addr:country": "US", "addr:housenumber": "2000", "addr:postcode": "78745", "addr:state": "TX", "addr:street": "Southern Oaks Drive", "amenity": "cafe", "building": "yes", "diet:vegan": "only", "height": "4.1", "name": "Vegan Yacht", "opening_hours": "Tu-Su 12:00-17:00; Th-Sa 12:00-20:00", "outdoor_seating": "yes", "phone": "+1-512-619-7989", "website": "https://www.theveganyacht.com/"}}]}