{"version": 0.6, "generator": "Overpass API 0.7.62.1 084b4234", "osm3s": {"timestamp_osm_base": "2024-04-10T04:10:47Z", "copyright": "The data included in this document is from www.openstreetmap.org. The data is made available under ODbL."}, "elements": [{"type": "node", "id": 1152899913, "lat": 30.267478, "lon": -97.7440007}, {"type": "node", "id": 1152899965, "lat": 30.267688, "lon": -97.7442833}, {"type": "node", "id": 1152900003, "lat": 30.2675977, "lon": -97.7439561}, {"type": "node", "id": 1481511086, "lat": 30.2662426, "lon": -97.7460117}, {"type": "node", "id": 1481511087, "lat": 30.2660185, "lon": -97.7460988}, {"type": "node", "id": 1481511088, "lat": 30.2659431, "lon": -97.745829}, {"type": "node", "id": 1481511099, "lat": 30.266254, "lon": -97.7457086}, {"type": "node", "id": 1481721318, "lat": 30.2674644, "lon": -97.7453298, "tags": {"amenity": "bar", "name": "Lucky Lounge"}}, {"type": "node", "id": 1489699385, "lat": 30.266973, "lon": -97.7456939, "tags": {"amenity": "cafe", "cuisine": "coffee_shop", "internet_access": "wlan", "internet_access:fee": "no", "name": "Halcyon"}}, {"type": "node", "id": 2395291359, "lat": 30.2667272, "lon": -97.7458257}, {"type": "node", "id": 2395291361, "lat": 30.2666883, "lon": -97.745684}, {"type": "node", "id": 2395291363, "lat": 30.2663525, "lon": -97.7458068}, {"type": "node", "id": 2395291365, "lat": 30.2663909, "lon": -97.7459495}, {"type": "node", "id": 2395291367, "lat": 30.2666474, "lon": -97.7455409}, {"type": "node", "id": 2395291369, "lat": 30.2663823, "lon": -97.7456381}, {"type": "node", "id": 3190877885, "lat": 30.2650419, "lon": -97.7460802, "tags": {"addr:housenumber": "242", "addr:street": "West 2nd Street", "amenity": "cafe", "internet_access": "wlan", "name": "Jo's Coffee", "opening_hours": "Mo-Fr 07:00-18:00; Sa,Su 08:00-18:00", "phone": "+1-512-462-9003"}}, {"type": "node", "id": 3245051647, "lat": 30.2652966, "lon": -97.7455299, "tags": {"addr:housenumber": "206", "addr:street": "Colorado Street", "amenity": "restaurant", "cuisine": "sushi", "name": "Bar Chi Sushi"}}, {"type": "node", "id": 3245051655, "lat": 30.2658493, "lon": -97.7465097, "tags": {"amenity": "cafe", "brand": "Starbucks", "brand:wikidata": "Q37158", "contact:website": "https://www.starbucks.com/store-locator/store/1006594/3rd-lavaca-301-west-3rd-street-austin-tx-787013815-us", "cuisine": "coffee_shop", "name": "Starbucks", "official_name": "Starbucks Coffee", "takeaway": "yes"}}, {"type": "node", "id": 3245054363, "lat": 30.2651262, "lon": -97.7463264, "tags": {"addr:housenumber": "258", "addr:street": "West 2nd Street", "amenity": "restaurant", "cuisine": "italian", "name": "Taverna"}}, {"type": "node", "id": 3245054365, "lat": 30.2650023, "lon": -97.7459789, "tags": {"addr:street": "West 2nd Street", "amenity": "restaurant", "name": "Cru"}}, {"type": "node", "id": 3245054371, "lat": 30.2656186, "lon": -97.7456335, "tags": {"addr:city": "Austin", "addr:housenumber": "205", "addr:postcode": "78701", "addr:state": "TX", "addr:street": "West 3rd Street", "amenity": "restaurant", "cuisine": "seafood", "name": "Bill's Oyster", "website": "https://www.billsoyster.com/", "website:menu": "https://www.billsoyster.com/menu"}}, {"type": "node", "id": 3248316800, "lat": 30.2651799, "lon": -97.7479269, "tags": {"amenity": "restaurant", "cuisine": "barbecue", "name": "Lamberts"}}, {"type": "node", "id": 3248316807, "lat": 30.265572, "lon": -97.7477644, "tags": {"addr:housenumber": "400", "addr:street": "West 2nd Street", "amenity": "restaurant", "cuisine": "mexican", "name": "La Condesa"}}, {"type": "node", "id": 3354444997, "lat": 30.2667078, "lon": -97.7449022}, {"type": "node", "id": 3354445001, "lat": 30.2667895, "lon": -97.745195}, {"type": "node", "id": 3354445003, "lat": 30.2668097, "lon": -97.7452674}, {"type": "node", "id": 3354445005, "lat": 30.2668345, "lon": -97.7453563}, {"type": "node", "id": 3354445007, "lat": 30.2668515, "lon": -97.7454171}, {"type": "node", "id": 3354445009, "lat": 30.2668698, "lon": -97.7448416}, {"type": "node", "id": 3354445010, "lat": 30.2668887, "lon": -97.7455506}, {"type": "node", "id": 3354445012, "lat": 30.2669114, "lon": -97.7449908}, {"type": "node", "id": 3354445014, "lat": 30.2669302, "lon": -97.7450582}, {"type": "node", "id": 3354445018, "lat": 30.2669514, "lon": -97.7451344}, {"type": "node", "id": 3354445029, "lat": 30.2670884, "lon": -97.7453285}, {"type": "node", "id": 3354445031, "lat": 30.2671179, "lon": -97.7450722}, {"type": "node", "id": 3354445033, "lat": 30.2671256, "lon": -97.745462}, {"type": "node", "id": 3354445034, "lat": 30.2671381, "lon": -97.7451446}, {"type": "node", "id": 3354445035, "lat": 30.2671629, "lon": -97.7452335}, {"type": "node", "id": 3354445036, "lat": 30.2671798, "lon": -97.7452943}, {"type": "node", "id": 3354471204, "lat": 30.2656562, "lon": -97.7439078}, {"type": "node", "id": 3354471207, "lat": 30.2657069, "lon": -97.7440873}, {"type": "node", "id": 3354471208, "lat": 30.2657309, "lon": -97.7438795}, {"type": "node", "id": 3354471211, "lat": 30.2657817, "lon": -97.7440589}, {"type": "node", "id": 3354471213, "lat": 30.265845, "lon": -97.7438362}, {"type": "node", "id": 3354471216, "lat": 30.2659132, "lon": -97.7440764}, {"type": "node", "id": 3354471226, "lat": 30.267537, "lon": -97.7463396}, {"type": "node", "id": 3354471227, "lat": 30.2675571, "lon": -97.7464104}, {"type": "node", "id": 3354471233, "lat": 30.2678682, "lon": -97.7462142}, {"type": "node", "id": 3354471234, "lat": 30.2678882, "lon": -97.746285}, {"type": "node", "id": 3671114130, "lat": 30.2669654, "lon": -97.7448469, "tags": {"addr:city": "Austin", "addr:housenumber": "404", "addr:postcode": "78701", "addr:state": "TX", "addr:street": "Colorado Street", "amenity": "bar", "contact:instagram": "https://www.instagram.com/highlandlounge/", "contact:twitter": "https://twitter.com/highlandaustin", "lgbtq": "primary", "name": "Highland Lounge", "phone": "+1-512-649-1212", "website": "https://highlandlounge.com/"}}, {"type": "node", "id": 3763984362, "lat": 30.264819, "lon": -97.7442485, "tags": {"amenity": "cafe", "name": "Caff\u00e9 Medici"}}, {"type": "node", "id": 3764035157, "lat": 30.2645145, "lon": -97.7443724, "tags": {"addr:city": "Austin", "addr:housenumber": "200", "addr:postcode": "78701", "addr:state": "TX", "addr:street": "Congress Avenue", "air_conditioning": "yes", "amenity": "restaurant", "bar": "yes", "branch": "Austin", "brand": "Fogo de Ch\u00e3o", "brand:wikidata": "Q5464133", "cuisine": "steak_house;brazilian", "level": "0", "name": "Fogo de Ch\u00e3o", "outdoor_seating": "yes", "phone": "+1-512-472-0220", "reservation": "yes", "start_date": "2022-12-23", "takeaway": "yes", "toilets": "yes", "website": "https://fogodechao.com/", "wheelchair": "yes"}}, {"type": "node", "id": 3849775798, "lat": 30.2646193, "lon": -97.7447359, "tags": {"addr:city": "Austin", "addr:housenumber": "200", "addr:postcode": "78701", "addr:state": "TX", "addr:street": "Congress Avenue", "air_conditioning": "yes", "amenity": "restaurant", "branch": "Austin, TX Branch", "brand": "Mason's Famous Lobster Rolls", "cuisine": "seafood", "delivery": "yes", "name": "Mason's Famous Lobster Rolls", "opening_hours": "Mo-Su 11:00-21:00", "outdoor_seating": "yes", "phone": "+1-512-428-4006", "smoking": "no", "website": "https://www.masonslobster.com/"}}, {"type": "node", "id": 3849776324, "lat": 30.264852, "lon": -97.745067, "tags": {"addr:housenumber": "201", "addr:postcode": "78701", "addr:street": "Colorado Street", "amenity": "theatre", "name": "Google Fiber Space", "opening_hours": "Mo-We 10:00-18:00; Th-Sa 10:00-21:00", "phone": "+1-866-777-7550", "website": "https://fiber.google.com/cities/austin/fiberspace/"}}, {"type": "node", "id": 3849776337, "lat": 30.265537, "lon": -97.745401, "tags": {"addr:city": "Austin", "addr:housenumber": "201", "addr:postcode": "78701", "addr:state": "TX", "addr:street": "West 3rd Street", "air_conditioning": "yes", "amenity": "restaurant", "cuisine": "chinese", "name": "Red Farm", "opening_date": "2023-11-08", "phone": "+1-512-859-9700", "reservation": "yes", "toilets": "yes", "website": "https://www.redfarmnyc.com/location/Austin/", "wheelchair": "yes"}}, {"type": "node", "id": 4908313021, "lat": 30.2677729, "lon": -97.7442084, "tags": {"addr:city": "Austin", "addr:housenumber": "503", "addr:postcode": "78701", "addr:state": "TX", "addr:street": "Colorado Street", "air_conditioning": "yes", "amenity": "bar", "description": "Cocktail bar located in a converted parking garage", "email": "events@garageatx.com", "min_age": "21", "name": "Garage", "opening_hours": "Mo-We 17:00-12:00; Th-Sa 17:00-02:00; Su closed", "website": "https://www.garagetx.com/"}}, {"type": "node", "id": 7313191255, "lat": 30.2673156, "lon": -97.7464984, "tags": {"addr:city": "Austin", "addr:housenumber": "400", "addr:postcode": "78701", "addr:state": "TX", "addr:street": "Lavaca Street", "amenity": "restaurant", "cuisine": "american", "name": "Group Therapy", "opening_hours": "Sa-Su 06:30-16:00 \"brunch\"; Mo-Fr 06:30-11:00 \"breakfast\"; Mo-Th,Su 16:00-22:00 \"dinner\"; Fr,Sa 16:00-23:00 \"dinner\"; Mo-Th,Su 22:00-24:00 \"bar only\"; Fr,Sa 23:00-02:00 \"bar only\"", "phone": "+1-888-880-3244", "website": "https://www.hotelzaza.com/austin/dining/group-therapy"}}, {"type": "node", "id": 8858558303, "lat": 30.2649849, "lon": -97.7458994, "tags": {"addr:city": "Austin", "addr:housenumber": "234", "addr:postcode": "78701", "addr:state": "TX", "addr:street": "West 2nd Street", "amenity": "bar", "name": "Upstairs Circus", "website": "https://www.upstairscircus.com/"}}, {"type": "node", "id": 9414594813, "lat": 30.2661642, "lon": -97.7457438}, {"type": "node", "id": 9414594814, "lat": 30.2663406, "lon": -97.7459733}, {"type": "node", "id": 9414594815, "lat": 30.2662623, "lon": -97.7457053}, {"type": "node", "id": 9414607026, "lat": 30.2657708, "lon": -97.7447534}, {"type": "node", "id": 9414607029, "lat": 30.2656547, "lon": -97.7447967}, {"type": "node", "id": 9414607030, "lat": 30.2656012, "lon": -97.7446041}, {"type": "node", "id": 9414607031, "lat": 30.2657173, "lon": -97.7445608}, {"type": "node", "id": 9416656295, "lat": 30.2664446, "lon": -97.7457735}, {"type": "node", "id": 9416656297, "lat": 30.2664084, "lon": -97.745735}, {"type": "node", "id": 9416656298, "lat": 30.2664319, "lon": -97.7457265}, {"type": "node", "id": 9416656303, "lat": 30.2662415, "lon": -97.7450879}, {"type": "node", "id": 9416656304, "lat": 30.2662803, "lon": -97.7452238}, {"type": "node", "id": 9416656305, "lat": 30.2662025, "lon": -97.7452535}, {"type": "node", "id": 9416656306, "lat": 30.2661637, "lon": -97.7451177}, {"type": "node", "id": 9418356269, "lat": 30.2658943, "lon": -97.7438175}, {"type": "node", "id": 9418356271, "lat": 30.2659629, "lon": -97.7440576}, {"type": "node", "id": 9494461576, "lat": 30.2675718, "lon": -97.7443265}, {"type": "node", "id": 9571217690, "lat": 30.2672548, "lon": -97.7471061, "tags": {"addr:city": "Austin", "addr:housenumber": "422", "addr:postcode": "78701", "addr:state": "TX", "addr:street": "Guadalupe Street", "amenity": "marketplace", "email": "info@sustainablefoodcenter.org", "name": "Sustainable Food Center Farmers' Market", "name:es": "Mercado Agr\u00edcola de SFC", "opening_hours": "Sa 09:00-13:00", "operator": "Sustainable Food Center", "operator:abbr": "SFC", "phone": "+1 512-236-0074", "short_name": "SFC Farmers' Market", "website": "https://sustainablefoodcenter.org/farmers-market/downtown"}}, {"type": "node", "id": 9659270129, "lat": 30.2678462, "lon": -97.7461392}, {"type": "node", "id": 9659270130, "lat": 30.2675144, "lon": -97.746264}, {"type": "node", "id": 10969167396, "lat": 30.2655244, "lon": -97.7442323, "tags": {"addr:housenumber": "102", "addr:street": "W 3rd St", "amenity": "restaurant", "cuisine": "greek;mexican", "description": "Greek with a hint of Mexican", "name": "ZIKI", "opening_hours": "Mo-Su 10:00-03:00", "website": "https://ziki.kitchen/"}}, {"type": "node", "id": 11071595410, "lat": 30.2658847, "lon": -97.7453973, "tags": {"addr:city": "Austin", "addr:housenumber": "300", "addr:postcode": "78701", "addr:state": "TX", "addr:street": "Colorado Street", "air_conditioning": "yes", "amenity": "restaurant", "bar": "yes", "branch": "Downtown Austin", "check_date": "2023-07-27", "cuisine": "seafood", "name": "Truluck's", "opening_hours": "Mo-Su 16:30-22:00", "phone": "+1-512-482-9000", "website": "https://trulucks.com/locations/downtown-austin-texas/"}}, {"type": "node", "id": 11679087442, "lat": 30.2677115, "lon": -97.7457896, "tags": {"addr:city": "Austin", "addr:housenumber": "303", "addr:postcode": "78701", "addr:state": "TX", "addr:street": "West 5th Street", "amenity": "restaurant", "name": "Manny's"}}, {"type": "node", "id": 11679087443, "lat": 30.2676872, "lon": -97.7457978, "tags": {"addr:city": "Austin", "addr:housenumber": "303", "addr:postcode": "78701", "addr:state": "TX", "addr:street": "West 5th Street", "amenity": "bar", "name": "Powder Room"}}, {"type": "way", "id": 134807229, "nodes": [1481511086, 1481511087, 1481511088, 9414594813, 1481511086], "tags": {"addr:housenumber": "301", "addr:postcode": "78701", "addr:street": "Lavaca Street", "amenity": "restaurant", "building": "retail", "name": "Bob's Steak & Chop House", "opening_hours": "Mo,Tu 16:30-22:00; We,Th 16:30-23:00; Fr,Sa 16:30-24:00"}}, {"type": "way", "id": 231123153, "nodes": [2395291359, 2395291361, 9416656295, 2395291363, 2395291365, 2395291359], "tags": {"addr:city": "Austin", "addr:housenumber": "315", "addr:postcode": "78701", "addr:state": "TX", "addr:street": "Lavaca Street", "amenity": "events_venue", "building": "yes", "name": "The Riley Building", "website": "https://www.therileybuilding.com/"}}, {"type": "way", "id": 231123155, "nodes": [2395291361, 2395291367, 2395291369, 9416656297, 9416656298, 9416656295, 2395291361], "tags": {"addr:city": "Austin", "addr:housenumber": "217", "addr:postcode": "78701", "addr:state": "TX", "addr:street": "West 4th Street", "air_conditioning": "yes", "alt_name": "Rain", "amenity": "bar", "building": "yes", "email": "contactus@rainon4th.com", "lgbtq": "primary", "name": "Rain on 4th", "phone": "+1-512-494-1150", "website": "https://www.rainon4th.com/"}}, {"type": "way", "id": 328631276, "nodes": [3354445034, 3354445031, 3354445001, 3354445003, 3354445034], "tags": {"addr:city": "Austin", "addr:housenumber": "208", "addr:postcode": "78701", "addr:state": "TX", "addr:street": "West 4th Street", "amenity": "restaurant", "building": "yes", "cuisine": "french", "name": "P\u00e9ch\u00e9", "phone": "+15123798249", "website": "http://www.pecheaustin.com/"}}, {"type": "way", "id": 328631289, "nodes": [3354445010, 3354445033, 3354445029, 3354445007, 3354445010], "tags": {"addr:city": "Austin", "addr:housenumber": "214", "addr:postcode": "78701", "addr:state": "TX", "addr:street": "West 4th Street", "addr:unit": "A", "amenity": "pub", "building": "retail", "building:levels": "1", "name": "The Pub", "opening_hours": "Su-Th 11:00-00:00; Fr-Sa 11:00-02:00", "source:geometry": "Bing"}}, {"type": "way", "id": 328631295, "nodes": [3354445007, 3354445029, 3354445036, 3354445035, 3354445005, 3354445007], "tags": {"addr:city": "Austin", "addr:housenumber": "214", "addr:postcode": "78701", "addr:state": "TX", "addr:street": "West 4th Street", "addr:unit": "B", "amenity": "bar", "building": "retail", "building:levels": "1", "name": "DuMont's Down Low", "source:geometry": "Bing"}}, {"type": "way", "id": 328631296, "nodes": [3354445001, 3354445018, 3354445014, 3354445012, 3354445009, 3354444997, 3354445001], "tags": {"addr:city": "Austin", "addr:housenumber": "400", "addr:postcode": "78701", "addr:state": "TX", "addr:street": "Colorado Street", "air_conditioning": "yes", "amenity": "bar", "building": "yes", "check_date": "2023-07-27", "email": "estelle@nocohospitalityatx.com", "name": "Estelle's Social Lounge", "opening_hours": "Tu-We 16:00-00:00; Th-Fr 16:00-02:00; Sa 12:00-02:00; Su 12:00-00:00", "phone": "+15129007626", "source:geometry": "Bing", "website": "https://www.estellesatx.com/", "website:menu": "https://www.estellesatx.com/the-menu"}}, {"type": "way", "id": 328634437, "nodes": [3354471208, 3354471204, 3354471207, 3354471211, 3354471208], "tags": {"addr:city": "Austin", "addr:housenumber": "308", "addr:postcode": "78701", "addr:state": "TX", "addr:street": "Congress Avenue", "air_conditioning": "yes", "amenity": "bar", "building": "yes", "min_age": "21", "name": "Mort Subite", "opening_hours": "Mo-Th 15:00-22:00; Fr-Sa 13:00-22:00; Su 13:00-19:00", "source:geometry": "Bing"}}, {"type": "way", "id": 328634458, "nodes": [3354471233, 3354471226, 3354471227, 3354471234, 3354471233], "tags": {"addr:city": "Austin", "addr:housenumber": "307", "addr:postcode": "78701", "addr:state": "TX", "addr:street": "West 5th Street", "amenity": "bar", "building": "yes", "building:levels": "2", "min_age": "21", "name": "The Roosevelt Room", "opening_hours": "Su-We 16:00-0:00; Th-Sa 16:00-02:00", "source:geometry": "Bing"}}, {"type": "way", "id": 1020753276, "nodes": [1481511086, 9414594814, 9414594815, 1481511099, 9414594813, 1481511086], "tags": {"addr:city": "Austin", "addr:housenumber": "301", "addr:postcode": "78701", "addr:state": "TX", "addr:street": "Lavaca Street", "addr:unit": "200", "amenity": "restaurant", "building": "yes", "cuisine": "pizza", "name": "DeSano Pizzeria Napoletana"}}, {"type": "way", "id": 1020753278, "nodes": [9414607026, 9414607029, 9414607030, 9414607031, 9414607026], "tags": {"addr:city": "Austin", "addr:housenumber": "303", "addr:postcode": "78701", "addr:state": "TX", "addr:street": "Colorado Street", "addr:unit": "200", "air_conditioning": "yes", "amenity": "restaurant", "cuisine": "italian", "level": "0", "name": "Red Ash", "outdoor_seating": "no", "phone": "+15123792906", "takeaway": "yes", "website": "http://redashgrill.com/"}}, {"type": "way", "id": 1020979630, "nodes": [9416656304, 9416656305, 9416656306, 9416656303, 9416656304], "tags": {"addr:city": "Austin", "addr:housenumber": "310", "addr:postcode": "78701", "addr:state": "TX", "addr:street": "Colorado Street", "addr:unit": "A", "air_conditioning": "yes", "amenity": "cafe", "building": "yes", "cuisine": "venezuelan", "name": "Cuatro Gato", "outdoor_seating": "yes"}}, {"type": "way", "id": 1021167044, "nodes": [3354471216, 9418356271, 9418356269, 3354471213, 3354471216], "tags": {"amenity": "restaurant", "building": "yes", "cuisine": "italian", "name": "La Traviata", "note": "Temporarily closed", "opening_hours:covid19": "closed"}}, {"type": "way", "id": 1029943785, "nodes": [1152899965, 9494461576, 1152899913, 1152900003, 1152899965], "tags": {"addr:city": "Austin", "addr:housenumber": "501", "addr:postcode": "78701", "addr:state": "TX", "addr:street": "Colorado Street", "air_conditioning": "yes", "amenity": "restaurant", "bar": "yes", "building": "yes", "cuisine": "mexican", "name": "Comedor", "phone": "+15124990977", "website": "https://comedortx.com/"}}, {"type": "way", "id": 1051117928, "nodes": [3354471226, 9659270130, 9659270129, 3354471233, 3354471226], "tags": {"addr:city": "Austin", "addr:housenumber": "307", "addr:postcode": "78701", "addr:state": "TX", "addr:street": "West 5th Street", "amenity": "events_venue", "building": "yes", "building:levels": "2", "name": "The Eleanor", "phone": "+15124944094", "website": "https://www.theeleanoratx.com/"}}, {"type": "way", "id": 1135532954, "nodes": [3354445005, 3354445003, 3354445034, 3354445035, 3354445005], "tags": {"addr:city": "Austin", "addr:housenumber": "208", "addr:postcode": "78701", "addr:state": "TX", "addr:street": "West 4th Street", "addr:unit": "C", "amenity": "bar", "building": "yes", "name": "Cedar Street Courtyard", "opening_hours": "Mo-Fr 17:00-02:00; PH closed"}}]}