{"version": 0.6, "generator": "Overpass API 0.7.62.1 084b4234", "osm3s": {"timestamp_osm_base": "2024-04-10T03:19:23Z", "copyright": "The data included in this document is from www.openstreetmap.org. The data is made available under ODbL."}, "elements": [{"type": "node", "id": 1154535784, "lat": 30.2695766, "lon": -97.7486091}, {"type": "node", "id": 1154535941, "lat": 30.2695857, "lon": -97.7488132}, {"type": "node", "id": 1154535976, "lat": 30.2696117, "lon": -97.7487319}, {"type": "node", "id": 1154536100, "lat": 30.269469, "lon": -97.7488578}, {"type": "node", "id": 1154536222, "lat": 30.2694157, "lon": -97.7486707}, {"type": "node", "id": 1481511086, "lat": 30.2662426, "lon": -97.7460117}, {"type": "node", "id": 1481511087, "lat": 30.2660185, "lon": -97.7460988}, {"type": "node", "id": 1481511088, "lat": 30.2659431, "lon": -97.745829}, {"type": "node", "id": 1481511099, "lat": 30.266254, "lon": -97.7457086}, {"type": "node", "id": 1481633387, "lat": 30.2686438, "lon": -97.7454056, "tags": {"addr:city": "Austin", "addr:housenumber": "301", "addr:postcode": "78701", "addr:state": "TX", "addr:street": "West 6th Street", "air_conditioning": "yes", "amenity": "bar", "lgbtq": "primary", "name": "The Iron Bear", "opening_hours": "Mo-Su 11:00-02:00", "smoking": "no", "takeaway": "yes", "website": "https://www.theironbear.com/"}}, {"type": "node", "id": 1481633389, "lat": 30.2686611, "lon": -97.7454947, "tags": {"amenity": "restaurant", "name": "Belmont"}}, {"type": "node", "id": 1481721318, "lat": 30.2674644, "lon": -97.7453298, "tags": {"amenity": "bar", "name": "Lucky Lounge"}}, {"type": "node", "id": 1489699385, "lat": 30.266973, "lon": -97.7456939, "tags": {"amenity": "cafe", "cuisine": "coffee_shop", "internet_access": "wlan", "internet_access:fee": "no", "name": "Halcyon"}}, {"type": "node", "id": 2395291359, "lat": 30.2667272, "lon": -97.7458257}, {"type": "node", "id": 2395291361, "lat": 30.2666883, "lon": -97.745684}, {"type": "node", "id": 2395291363, "lat": 30.2663525, "lon": -97.7458068}, {"type": "node", "id": 2395291365, "lat": 30.2663909, "lon": -97.7459495}, {"type": "node", "id": 2395291367, "lat": 30.2666474, "lon": -97.7455409}, {"type": "node", "id": 2395291369, "lat": 30.2663823, "lon": -97.7456381}, {"type": "node", "id": 3229820338, "lat": 30.2695674, "lon": -97.7487489}, {"type": "node", "id": 3354444997, "lat": 30.2667078, "lon": -97.7449022}, {"type": "node", "id": 3354445001, "lat": 30.2667895, "lon": -97.745195}, {"type": "node", "id": 3354445003, "lat": 30.2668097, "lon": -97.7452674}, {"type": "node", "id": 3354445005, "lat": 30.2668345, "lon": -97.7453563}, {"type": "node", "id": 3354445007, "lat": 30.2668515, "lon": -97.7454171}, {"type": "node", "id": 3354445009, "lat": 30.2668698, "lon": -97.7448416}, {"type": "node", "id": 3354445010, "lat": 30.2668887, "lon": -97.7455506}, {"type": "node", "id": 3354445012, "lat": 30.2669114, "lon": -97.7449908}, {"type": "node", "id": 3354445014, "lat": 30.2669302, "lon": -97.7450582}, {"type": "node", "id": 3354445018, "lat": 30.2669514, "lon": -97.7451344}, {"type": "node", "id": 3354445029, "lat": 30.2670884, "lon": -97.7453285}, {"type": "node", "id": 3354445031, "lat": 30.2671179, "lon": -97.7450722}, {"type": "node", "id": 3354445033, "lat": 30.2671256, "lon": -97.745462}, {"type": "node", "id": 3354445034, "lat": 30.2671381, "lon": -97.7451446}, {"type": "node", "id": 3354445035, "lat": 30.2671629, "lon": -97.7452335}, {"type": "node", "id": 3354445036, "lat": 30.2671798, "lon": -97.7452943}, {"type": "node", "id": 3354471226, "lat": 30.267537, "lon": -97.7463396}, {"type": "node", "id": 3354471227, "lat": 30.2675571, "lon": -97.7464104}, {"type": "node", "id": 3354471233, "lat": 30.2678682, "lon": -97.7462142}, {"type": "node", "id": 3354471234, "lat": 30.2678882, "lon": -97.746285}, {"type": "node", "id": 3671114130, "lat": 30.2669654, "lon": -97.7448469, "tags": {"addr:city": "Austin", "addr:housenumber": "404", "addr:postcode": "78701", "addr:state": "TX", "addr:street": "Colorado Street", "amenity": "bar", "contact:instagram": "https://www.instagram.com/highlandlounge/", "contact:twitter": "https://twitter.com/highlandaustin", "lgbtq": "primary", "name": "Highland Lounge", "phone": "+1-512-649-1212", "website": "https://highlandlounge.com/"}}, {"type": "node", "id": 3849778288, "lat": 30.2686128, "lon": -97.7478966, "tags": {"addr:housenumber": "500", "addr:postcode": "78701", "addr:street": "West 5th Street", "amenity": "restaurant", "cuisine": "chinese", "name": "Wu Chow", "opening_hours": "Mo-Fr 11:00-14:00, Mo-Th 17:00-22:00, Fr,Sa 17:00-23:00; Su 11:00-15:00", "website": "https://wuchowaustin.com/"}}, {"type": "node", "id": 6795476806, "lat": 30.268145, "lon": -97.7474393}, {"type": "node", "id": 6795476807, "lat": 30.2680993, "lon": -97.747456}, {"type": "node", "id": 6795476808, "lat": 30.26814, "lon": -97.7475974}, {"type": "node", "id": 6795476809, "lat": 30.2681836, "lon": -97.7475812}, {"type": "node", "id": 7313191255, "lat": 30.2673156, "lon": -97.7464984, "tags": {"addr:city": "Austin", "addr:housenumber": "400", "addr:postcode": "78701", "addr:state": "TX", "addr:street": "Lavaca Street", "amenity": "restaurant", "cuisine": "american", "name": "Group Therapy", "opening_hours": "Sa-Su 06:30-16:00 \"brunch\"; Mo-Fr 06:30-11:00 \"breakfast\"; Mo-Th,Su 16:00-22:00 \"dinner\"; Fr,Sa 16:00-23:00 \"dinner\"; Mo-Th,Su 22:00-24:00 \"bar only\"; Fr,Sa 23:00-02:00 \"bar only\"", "phone": "+1-888-880-3244", "website": "https://www.hotelzaza.com/austin/dining/group-therapy"}}, {"type": "node", "id": 8953194870, "lat": 30.2694975, "lon": -97.7486393, "tags": {"artist_name": "Alec Monopoly", "artwork_type": "mural", "tourism": "artwork"}}, {"type": "node", "id": 8955666710, "lat": 30.2687991, "lon": -97.748568, "tags": {"addr:city": "Austin", "addr:housenumber": "500", "addr:postcode": "78701", "addr:state": "TX", "addr:street": "West 5th Street", "air_conditioning": "yes", "amenity": "restaurant", "cuisine": "southern", "name": "Fixe Southern House", "smoking": "no"}}, {"type": "node", "id": 8999352176, "lat": 30.2681792, "lon": -97.7475644, "tags": {"entrance": "yes"}}, {"type": "node", "id": 8999352177, "lat": 30.2681358, "lon": -97.7475817, "tags": {"entrance": "yes"}}, {"type": "node", "id": 9414594813, "lat": 30.2661642, "lon": -97.7457438}, {"type": "node", "id": 9414594814, "lat": 30.2663406, "lon": -97.7459733}, {"type": "node", "id": 9414594815, "lat": 30.2662623, "lon": -97.7457053}, {"type": "node", "id": 9416656295, "lat": 30.2664446, "lon": -97.7457735}, {"type": "node", "id": 9416656297, "lat": 30.2664084, "lon": -97.745735}, {"type": "node", "id": 9416656298, "lat": 30.2664319, "lon": -97.7457265}, {"type": "node", "id": 9416656303, "lat": 30.2662415, "lon": -97.7450879}, {"type": "node", "id": 9416656304, "lat": 30.2662803, "lon": -97.7452238}, {"type": "node", "id": 9416656305, "lat": 30.2662025, "lon": -97.7452535}, {"type": "node", "id": 9416656306, "lat": 30.2661637, "lon": -97.7451177}, {"type": "node", "id": 9571217690, "lat": 30.2672548, "lon": -97.7471061, "tags": {"addr:city": "Austin", "addr:housenumber": "422", "addr:postcode": "78701", "addr:state": "TX", "addr:street": "Guadalupe Street", "amenity": "marketplace", "email": "info@sustainablefoodcenter.org", "name": "Sustainable Food Center Farmers' Market", "name:es": "Mercado Agr\u00edcola de SFC", "opening_hours": "Sa 09:00-13:00", "operator": "Sustainable Food Center", "operator:abbr": "SFC", "phone": "+1 512-236-0074", "short_name": "SFC Farmers' Market", "website": "https://sustainablefoodcenter.org/farmers-market/downtown"}}, {"type": "node", "id": 9659270129, "lat": 30.2678462, "lon": -97.7461392}, {"type": "node", "id": 9659270130, "lat": 30.2675144, "lon": -97.746264}, {"type": "node", "id": 11679087442, "lat": 30.2677115, "lon": -97.7457896, "tags": {"addr:city": "Austin", "addr:housenumber": "303", "addr:postcode": "78701", "addr:state": "TX", "addr:street": "West 5th Street", "amenity": "restaurant", "name": "Manny's"}}, {"type": "node", "id": 11679087443, "lat": 30.2676872, "lon": -97.7457978, "tags": {"addr:city": "Austin", "addr:housenumber": "303", "addr:postcode": "78701", "addr:state": "TX", "addr:street": "West 5th Street", "amenity": "bar", "name": "Powder Room"}}, {"type": "way", "id": 99868668, "nodes": [1154535976, 3229820338, 1154535941, 1154536100, 1154536222, 8953194870, 1154535784, 1154535976], "tags": {"addr:housenumber": "601", "addr:postcode": "78701", "addr:street": "West 6th Street", "amenity": "restaurant", "building": "yes", "name": "Parlor and Yard"}}, {"type": "way", "id": 134807229, "nodes": [1481511086, 1481511087, 1481511088, 9414594813, 1481511086], "tags": {"addr:housenumber": "301", "addr:postcode": "78701", "addr:street": "Lavaca Street", "amenity": "restaurant", "building": "retail", "name": "Bob's Steak & Chop House", "opening_hours": "Mo,Tu 16:30-22:00; We,Th 16:30-23:00; Fr,Sa 16:30-24:00"}}, {"type": "way", "id": 231123153, "nodes": [2395291359, 2395291361, 9416656295, 2395291363, 2395291365, 2395291359], "tags": {"addr:city": "Austin", "addr:housenumber": "315", "addr:postcode": "78701", "addr:state": "TX", "addr:street": "Lavaca Street", "amenity": "events_venue", "building": "yes", "name": "The Riley Building", "website": "https://www.therileybuilding.com/"}}, {"type": "way", "id": 231123155, "nodes": [2395291361, 2395291367, 2395291369, 9416656297, 9416656298, 9416656295, 2395291361], "tags": {"addr:city": "Austin", "addr:housenumber": "217", "addr:postcode": "78701", "addr:state": "TX", "addr:street": "West 4th Street", "air_conditioning": "yes", "alt_name": "Rain", "amenity": "bar", "building": "yes", "email": "contactus@rainon4th.com", "lgbtq": "primary", "name": "Rain on 4th", "phone": "+1-512-494-1150", "website": "https://www.rainon4th.com/"}}, {"type": "way", "id": 328631276, "nodes": [3354445034, 3354445031, 3354445001, 3354445003, 3354445034], "tags": {"addr:city": "Austin", "addr:housenumber": "208", "addr:postcode": "78701", "addr:state": "TX", "addr:street": "West 4th Street", "amenity": "restaurant", "building": "yes", "cuisine": "french", "name": "P\u00e9ch\u00e9", "phone": "+15123798249", "website": "http://www.pecheaustin.com/"}}, {"type": "way", "id": 328631289, "nodes": [3354445010, 3354445033, 3354445029, 3354445007, 3354445010], "tags": {"addr:city": "Austin", "addr:housenumber": "214", "addr:postcode": "78701", "addr:state": "TX", "addr:street": "West 4th Street", "addr:unit": "A", "amenity": "pub", "building": "retail", "building:levels": "1", "name": "The Pub", "opening_hours": "Su-Th 11:00-00:00; Fr-Sa 11:00-02:00", "source:geometry": "Bing"}}, {"type": "way", "id": 328631295, "nodes": [3354445007, 3354445029, 3354445036, 3354445035, 3354445005, 3354445007], "tags": {"addr:city": "Austin", "addr:housenumber": "214", "addr:postcode": "78701", "addr:state": "TX", "addr:street": "West 4th Street", "addr:unit": "B", "amenity": "bar", "building": "retail", "building:levels": "1", "name": "DuMont's Down Low", "source:geometry": "Bing"}}, {"type": "way", "id": 328631296, "nodes": [3354445001, 3354445018, 3354445014, 3354445012, 3354445009, 3354444997, 3354445001], "tags": {"addr:city": "Austin", "addr:housenumber": "400", "addr:postcode": "78701", "addr:state": "TX", "addr:street": "Colorado Street", "air_conditioning": "yes", "amenity": "bar", "building": "yes", "check_date": "2023-07-27", "email": "estelle@nocohospitalityatx.com", "name": "Estelle's Social Lounge", "opening_hours": "Tu-We 16:00-00:00; Th-Fr 16:00-02:00; Sa 12:00-02:00; Su 12:00-00:00", "phone": "+15129007626", "source:geometry": "Bing", "website": "https://www.estellesatx.com/", "website:menu": "https://www.estellesatx.com/the-menu"}}, {"type": "way", "id": 328634458, "nodes": [3354471233, 3354471226, 3354471227, 3354471234, 3354471233], "tags": {"addr:city": "Austin", "addr:housenumber": "307", "addr:postcode": "78701", "addr:state": "TX", "addr:street": "West 5th Street", "amenity": "bar", "building": "yes", "building:levels": "2", "min_age": "21", "name": "The Roosevelt Room", "opening_hours": "Su-We 16:00-0:00; Th-Sa 16:00-02:00", "source:geometry": "Bing"}}, {"type": "way", "id": 724582090, "nodes": [6795476806, 6795476807, 8999352177, 6795476808, 6795476809, 8999352176, 6795476806], "tags": {"addr:city": "Austin", "addr:housenumber": "422", "addr:postcode": "78701", "addr:state": "TX", "addr:street": "Guadalupe Street", "addr:unit": "C", "amenity": "cafe", "building": "retail", "building:levels": "1", "cuisine": "american", "name": "Rosen's Bagels", "opening_date": "2019-09-01", "opening_hours": "Mo-Fr 07:00-14:00; Sa-Su 08:00-15:00", "outdoor_seating": "yes", "website": "https://www.rosensbagels.com/"}}, {"type": "way", "id": 1020753276, "nodes": [1481511086, 9414594814, 9414594815, 1481511099, 9414594813, 1481511086], "tags": {"addr:city": "Austin", "addr:housenumber": "301", "addr:postcode": "78701", "addr:state": "TX", "addr:street": "Lavaca Street", "addr:unit": "200", "amenity": "restaurant", "building": "yes", "cuisine": "pizza", "name": "DeSano Pizzeria Napoletana"}}, {"type": "way", "id": 1020979630, "nodes": [9416656304, 9416656305, 9416656306, 9416656303, 9416656304], "tags": {"addr:city": "Austin", "addr:housenumber": "310", "addr:postcode": "78701", "addr:state": "TX", "addr:street": "Colorado Street", "addr:unit": "A", "air_conditioning": "yes", "amenity": "cafe", "building": "yes", "cuisine": "venezuelan", "name": "Cuatro Gato", "outdoor_seating": "yes"}}, {"type": "way", "id": 1051117928, "nodes": [3354471226, 9659270130, 9659270129, 3354471233, 3354471226], "tags": {"addr:city": "Austin", "addr:housenumber": "307", "addr:postcode": "78701", "addr:state": "TX", "addr:street": "West 5th Street", "amenity": "events_venue", "building": "yes", "building:levels": "2", "name": "The Eleanor", "phone": "+15124944094", "website": "https://www.theeleanoratx.com/"}}, {"type": "way", "id": 1135532954, "nodes": [3354445005, 3354445003, 3354445034, 3354445035, 3354445005], "tags": {"addr:city": "Austin", "addr:housenumber": "208", "addr:postcode": "78701", "addr:state": "TX", "addr:street": "West 4th Street", "addr:unit": "C", "amenity": "bar", "building": "yes", "name": "Cedar Street Courtyard", "opening_hours": "Mo-Fr 17:00-02:00; PH closed"}}]}