{"version": 0.6, "generator": "Overpass API 0.7.62.1 084b4234", "osm3s": {"timestamp_osm_base": "2024-04-10T03:20:24Z", "copyright": "The data included in this document is from www.openstreetmap.org. The data is made available under ODbL."}, "elements": [{"type": "node", "id": 919327835, "lat": 30.2512104, "lon": -97.7657583, "tags": {"amenity": "cafe", "name": "Picnik"}}, {"type": "node", "id": 919334307, "lat": 30.252256, "lon": -97.7635926, "tags": {"amenity": "cafe", "brand": "Starbucks", "brand:wikidata": "Q37158", "contact:website": "https://www.starbucks.com/store-locator/store/12397/s-lamar-collier-1509-south-lamar-blvd-suite-100-austin-tx-78704296", "cuisine": "coffee_shop", "name": "Starbucks", "official_name": "Starbucks Coffee", "takeaway": "yes"}}, {"type": "node", "id": 3281003852, "lat": 30.2525772, "lon": -97.7642612, "tags": {"amenity": "restaurant", "cuisine": "italian", "name": "It's Italian Cucina"}}, {"type": "node", "id": 3281003853, "lat": 30.2523316, "lon": -97.7644892, "tags": {"amenity": "restaurant", "cuisine": "spanish", "name": "El Raval"}}, {"type": "node", "id": 3866033797, "lat": 30.2534349, "lon": -97.7635326}, {"type": "node", "id": 3866033799, "lat": 30.2534403, "lon": -97.763544}, {"type": "node", "id": 3866033813, "lat": 30.2535029, "lon": -97.763676}, {"type": "node", "id": 3866033815, "lat": 30.2535093, "lon": -97.7636896}, {"type": "node", "id": 3866033854, "lat": 30.2536363, "lon": -97.7636088}, {"type": "node", "id": 3866034072, "lat": 30.2538637, "lon": -97.7631957}, {"type": "node", "id": 3866034101, "lat": 30.2539626, "lon": -97.7634067}, {"type": "node", "id": 3866034112, "lat": 30.2539423, "lon": -97.7631368}, {"type": "node", "id": 3866034152, "lat": 30.2540524, "lon": -97.7633423}, {"type": "node", "id": 4639135648, "lat": 30.2508607, "lon": -97.7659325, "tags": {"amenity": "restaurant", "cuisine": "brunch", "name": "Snooze"}}, {"type": "node", "id": 8481463742, "lat": 30.2540386, "lon": -97.7633581}, {"type": "node", "id": 8481463743, "lat": 30.2540361, "lon": -97.7633527}, {"type": "node", "id": 8481463744, "lat": 30.2539674, "lon": -97.7631639}, {"type": "node", "id": 8481463745, "lat": 30.253958, "lon": -97.7631699}, {"type": "node", "id": 8481463746, "lat": 30.2538954, "lon": -97.7631668}, {"type": "node", "id": 8481463747, "lat": 30.2538985, "lon": -97.7631734}, {"type": "node", "id": 8623164226, "lat": 30.2535617, "lon": -97.7634518}, {"type": "node", "id": 9838518117, "lat": 30.2538724, "lon": -97.7632897, "tags": {"amenity": "bar", "name": "Tiki Tatsu-ya"}}, {"type": "way", "id": 383355338, "nodes": [3866034101, 8481463742, 8481463743, 3866034152, 8481463744, 8481463745, 3866034112, 8481463746, 8481463747, 3866034072, 3866034101], "tags": {"addr:city": "Austin", "addr:country": "US", "addr:housenumber": "1234", "addr:postcode": "78704", "addr:state": "TX", "addr:street": "South Lamar Boulevard", "amenity": "restaurant", "branch": "South Austin", "brand": "Ramen Tatsu-Ya", "brand:website": "https://ramen-tatsuya.com/", "building": "yes", "cuisine": "noodle;ramen", "height": "6.2", "name": "Ramen Tatsu-ya", "name:ja": "\u30e9\u30fc\u30e1\u30f3\u305f\u3064\u5c4b", "takeaway": "no", "website": "https://www.toasttab.com/ramen-tatsu-ya-south-lamar/v3"}}, {"type": "way", "id": 1024600247, "nodes": [3866033813, 3866033815, 3866033854, 8623164226, 3866033797, 3866033799, 3866033813], "tags": {"addr:city": "Austin", "addr:country": "US", "addr:housenumber": "1320", "addr:postcode": "78704", "addr:state": "TX", "addr:street": "South Lamar Boulevard", "amenity": "bar", "building": "yes", "contact:facebook": "http://www.facebook.com/thesaxonpub", "contact:instagram": "http://instagram.com/thesaxonpub", "contact:twitter": "http://twitter.com/saxonpub", "email": "saxonpub@yahoo.com", "height": "6.2", "name": "Saxon Pub", "phone": "+1-512-448-2552", "website": "https://thesaxonpub.com/"}}]}