{"version": 0.6, "generator": "Overpass API 0.7.62.1 084b4234", "osm3s": {"timestamp_osm_base": "2024-04-10T03:20:24Z", "copyright": "The data included in this document is from www.openstreetmap.org. The data is made available under ODbL."}, "elements": [{"type": "node", "id": 280760598, "lat": 30.2554618, "lon": -97.7635622}, {"type": "node", "id": 919327546, "lat": 30.2561493, "lon": -97.7631528, "tags": {"addr:city": "Austin", "addr:country": "US", "addr:housenumber": "1120", "addr:postcode": "78704", "addr:state": "TX", "addr:street": "South Lamar Boulevard", "amenity": "bar", "contact:facebook": "https://www.facebook.com/highballaustin", "contact:twitter": "https://twitter.com/highballaustin", "name": "The Highball", "opening_hours": "Mo-Th 16:00-24:00; Fr 16:00-26:00; Sa 13:00-26:00; Su 13:00-24:00", "phone": "+1-512-383-8309", "sport": "10pin", "website": "https://thehighball.com/"}}, {"type": "node", "id": 1667401528, "lat": 30.2555387, "lon": -97.7625208, "tags": {"addr:housenumber": "1100", "addr:postcode": "78704", "addr:street": "South Lamar Boulevard", "addr:unit": "1135", "amenity": "restaurant", "branch": "South Austin: Lamar Union", "brand": "Lick Honest Ice Creams", "brand:website": "https://www.ilikelick.com/", "cuisine": "ice_cream", "name": "Lick Honest Ice Creams", "opening_hours": "Su-Th 12:30-22:00; Fr-Sa 12:30-23:30", "phone": "+1-512-363-5622"}}, {"type": "node", "id": 3181780242, "lat": 30.257642, "lon": -97.759738}, {"type": "node", "id": 3866035224, "lat": 30.254635, "lon": -97.762528}, {"type": "node", "id": 3866035230, "lat": 30.25466, "lon": -97.762596}, {"type": "node", "id": 3866035233, "lat": 30.254664, "lon": -97.762593}, {"type": "node", "id": 3866035457, "lat": 30.254721, "lon": -97.762477}, {"type": "node", "id": 3866035461, "lat": 30.254746, "lon": -97.762785}, {"type": "node", "id": 3866035470, "lat": 30.254795, "lon": -97.762642}, {"type": "node", "id": 3866035475, "lat": 30.254804, "lon": -97.762637}, {"type": "node", "id": 3866035477, "lat": 30.254806, "lon": -97.762749}, {"type": "node", "id": 3866035481, "lat": 30.254816, "lon": -97.76277}, {"type": "node", "id": 3866035487, "lat": 30.254828, "lon": -97.762734}, {"type": "node", "id": 3866035491, "lat": 30.254832, "lon": -97.762719}, {"type": "node", "id": 3866035493, "lat": 30.254836, "lon": -97.762729}, {"type": "node", "id": 3866035495, "lat": 30.254838, "lon": -97.762757}, {"type": "node", "id": 3866035496, "lat": 30.254839, "lon": -97.762714}, {"type": "node", "id": 3866035498, "lat": 30.2548786, "lon": -97.7618682}, {"type": "node", "id": 3866035511, "lat": 30.2549421, "lon": -97.762}, {"type": "node", "id": 3866035528, "lat": 30.2550033, "lon": -97.7617877}, {"type": "node", "id": 3866035535, "lat": 30.2550157, "lon": -97.7618134}, {"type": "node", "id": 3866035541, "lat": 30.255033, "lon": -97.7619412}, {"type": "node", "id": 3866035543, "lat": 30.2550356, "lon": -97.7619466}, {"type": "node", "id": 3866035553, "lat": 30.2550656, "lon": -97.7619229}, {"type": "node", "id": 3866035555, "lat": 30.2550672, "lon": -97.7619263}, {"type": "node", "id": 3866035765, "lat": 30.2550894, "lon": -97.7617879}, {"type": "node", "id": 3866035777, "lat": 30.2551123, "lon": -97.7618872}, {"type": "node", "id": 3866035778, "lat": 30.2551143, "lon": -97.7618914}, {"type": "node", "id": 3866035786, "lat": 30.2551314, "lon": -97.7618748}, {"type": "node", "id": 3866035810, "lat": 30.2551623, "lon": -97.7616428}, {"type": "node", "id": 3866035836, "lat": 30.2552233, "lon": -97.7617848}, {"type": "node", "id": 3866036073, "lat": 30.2553086, "lon": -97.7617357}, {"type": "node", "id": 3866038271, "lat": 30.257381, "lon": -97.759633}, {"type": "node", "id": 3866038306, "lat": 30.257429, "lon": -97.759598}, {"type": "node", "id": 3866038325, "lat": 30.25746, "lon": -97.759795}, {"type": "node", "id": 3866038330, "lat": 30.257468, "lon": -97.75979}, {"type": "node", "id": 3866038334, "lat": 30.257471, "lon": -97.759674}, {"type": "node", "id": 3866038340, "lat": 30.257482, "lon": -97.759666}, {"type": "node", "id": 3866038355, "lat": 30.257512, "lon": -97.759719}, {"type": "node", "id": 3866038661, "lat": 30.257519, "lon": -97.759902}, {"type": "node", "id": 3866038683, "lat": 30.257547, "lon": -97.759882}, {"type": "node", "id": 3866038693, "lat": 30.257555, "lon": -97.759896}, {"type": "node", "id": 3866038717, "lat": 30.257585, "lon": -97.759852}, {"type": "node", "id": 3866038722, "lat": 30.257593, "lon": -97.759782}, {"type": "node", "id": 3866038723, "lat": 30.257594, "lon": -97.759868}, {"type": "node", "id": 3866038728, "lat": 30.257598, "lon": -97.759657}, {"type": "node", "id": 3866038729, "lat": 30.257598, "lon": -97.759808}, {"type": "node", "id": 3866038738, "lat": 30.257605, "lon": -97.759803}, {"type": "node", "id": 3866038745, "lat": 30.257612, "lon": -97.759832}, {"type": "node", "id": 3866038979, "lat": 30.257645, "lon": -97.759744}, {"type": "node", "id": 4917725342, "lat": 30.2556683, "lon": -97.7639929}, {"type": "node", "id": 4917725346, "lat": 30.2559537, "lon": -97.7632462}, {"type": "node", "id": 4917725348, "lat": 30.256153, "lon": -97.763231}, {"type": "node", "id": 4917725349, "lat": 30.255995, "lon": -97.7633325}, {"type": "node", "id": 9447887928, "lat": 30.2560622, "lon": -97.7637398}, {"type": "node", "id": 9447887929, "lat": 30.2561627, "lon": -97.7632512}, {"type": "node", "id": 9447887935, "lat": 30.2563028, "lon": -97.7631611}, {"type": "node", "id": 9447887936, "lat": 30.2563341, "lon": -97.7632264}, {"type": "node", "id": 9447887937, "lat": 30.2563502, "lon": -97.7632161}, {"type": "node", "id": 9447887938, "lat": 30.2563906, "lon": -97.7633005}, {"type": "node", "id": 9447887939, "lat": 30.2563692, "lon": -97.7633143}, {"type": "node", "id": 9447887940, "lat": 30.2563764, "lon": -97.7633295}, {"type": "node", "id": 9447887941, "lat": 30.2559859, "lon": -97.7635804}, {"type": "node", "id": 9447887996, "lat": 30.2547788, "lon": -97.762057}, {"type": "node", "id": 9447887997, "lat": 30.2546751, "lon": -97.7618404}, {"type": "node", "id": 9447887998, "lat": 30.2545459, "lon": -97.7619233}, {"type": "node", "id": 9447887999, "lat": 30.2546496, "lon": -97.7621399}, {"type": "node", "id": 9447901817, "lat": 30.2550645, "lon": -97.7617818}, {"type": "node", "id": 9447901818, "lat": 30.2550726, "lon": -97.7617987}, {"type": "node", "id": 9447901819, "lat": 30.2552476, "lon": -97.7615937}, {"type": "node", "id": 9509530663, "lat": 30.2560463, "lon": -97.7629586, "tags": {"addr:city": "Austin", "addr:housenumber": "1100", "addr:postcode": "78704", "addr:state": "TX", "addr:street": "South Lamar Boulevard", "addr:unit": "2140", "air_conditioning": "yes", "amenity": "restaurant", "cuisine": "korean", "level": "0", "name": "Jjim", "name:ko": "\ucc1c", "opening_hours": "Tu-Th 12:00-15:00, 17:00-21:00; Fr-Sa 12:00-15:00, 17:00-22:00", "outdoor_seating": "yes", "phone": "+1-737-202-4475", "reservation": "yes", "website": "https://www.jjimbbq.com/"}}, {"type": "node", "id": 10563618402, "lat": 30.2556008, "lon": -97.7620108, "tags": {"addr:city": "Austin", "addr:housenumber": "1100", "addr:postcode": "78704", "addr:state": "TX", "addr:street": "South Lamar Boulevard", "addr:unit": "2115", "amenity": "restaurant", "cuisine": "japanese", "name": "Soto", "website": "https://sotosouthlamar.com/"}}, {"type": "node", "id": 10563618404, "lat": 30.25576, "lon": -97.7623743, "tags": {"addr:city": "Austin", "addr:housenumber": "1100", "addr:postcode": "78704", "addr:state": "TX", "addr:street": "South Lamar Boulevard", "addr:unit": "2125", "amenity": "cafe", "cuisine": "coffee_shop", "name": "Medici Roasting", "website": "https://mediciroasting.com/"}}, {"type": "node", "id": 10563618407, "lat": 30.2553704, "lon": -97.7621579, "tags": {"addr:city": "Austin", "addr:housenumber": "1100", "addr:postcode": "78704", "addr:state": "TX", "addr:street": "South Lamar Boulevard", "addr:unit": "1125", "amenity": "restaurant", "cuisine": "asian;vietnamese;thai;lao", "name": "Mandala Kitchen & Bar", "website": "http://mandalakitchenandbar.com/"}}, {"type": "node", "id": 10563618408, "lat": 30.2558239, "lon": -97.7631014, "tags": {"addr:city": "Austin", "addr:housenumber": "1100", "addr:postcode": "78704", "addr:state": "TX", "addr:street": "South Lamar Boulevard", "addr:unit": "1150", "amenity": "restaurant", "cuisine": "southern;texan", "name": "TLC", "phone": "+1-512-580-0971", "website": "https://www.tlcaustin.com/"}}, {"type": "way", "id": 383355029, "nodes": [9447901819, 3866035810, 3866035836, 3866036073, 9447901819], "tags": {"addr:city": "Austin", "addr:country": "US", "addr:housenumber": "1105", "addr:postcode": "78704", "addr:state": "TX", "addr:street": "South Lamar Boulevard", "amenity": "cafe", "brand": "Merit Coffee", "brand:website": "https://meritcoffee.com/", "building": "retail", "height": "9.1", "name": "Merit Coffee", "opening_hours": "Mo-Su 07:00-19:00", "phone": "+1-512-906-0010"}}, {"type": "way", "id": 383355032, "nodes": [3866035765, 9447901818, 9447901817, 3866035535, 3866035528, 3866035498, 3866035511, 3866035541, 3866035543, 3866035555, 3866035553, 3866035778, 3866035777, 3866035786, 3866035765], "tags": {"addr:city": "Austin", "addr:country": "US", "addr:housenumber": "1109", "addr:postcode": "78704", "addr:state": "TX", "addr:street": "South Lamar Boulevard", "amenity": "pub", "building": "yes", "height": "9.1", "name": "Gibson Street Bar", "opening_hours": "Mo-Th 16:00-26:00; Fr-Su 12:00-26:00", "phone": "+1-512-386-1345", "website": "https://www.gibsonstreetbar.com/"}}, {"type": "way", "id": 383355208, "nodes": [3181780242, 3866038728, 3866038355, 3866038340, 3866038334, 3866038306, 3866038271, 3866038330, 3866038325, 3866038661, 3866038683, 3866038693, 3866038723, 3866038717, 3866038745, 3866038729, 3866038738, 3866038722, 3866038979, 3181780242], "tags": {"addr:city": "Austin", "addr:housenumber": "801", "addr:postcode": "78704", "addr:state": "TX", "addr:street": "South Lamar Boulevard", "amenity": "restaurant", "building": "yes", "cuisine": "japanese;sushi", "height": "8.7", "name": "Uchi", "opening_hours": "Su-Th 17:00-22:00; Fr-Sa 17:00-23:00", "phone": "+1-512-916-4808", "website": "https://www.uchiaustin.com/", "wikidata": "Q7876695", "wikipedia": "en:Uchi"}}, {"type": "way", "id": 383355317, "nodes": [3866035224, 3866035233, 3866035230, 3866035461, 3866035477, 3866035481, 3866035495, 3866035487, 3866035493, 3866035491, 3866035496, 3866035475, 3866035470, 3866035457, 3866035224], "tags": {"addr:housenumber": "1212", "addr:postcode": "78704", "addr:street": "South Lamar Boulevard", "amenity": "restaurant", "building": "yes", "cuisine": "tex-mex", "height": "6.0", "name": "Maudie's Tex-Mex", "website": "https://www.maudies.com/"}}, {"type": "way", "id": 1024600242, "nodes": [9447887928, 4917725342, 280760598, 4917725346, 4917725349, 4917725348, 9447887929, 9447887935, 9447887936, 9447887937, 9447887938, 9447887939, 9447887940, 9447887941, 9447887928], "tags": {"addr:city": "Austin", "addr:country": "US", "addr:housenumber": "1120", "addr:postcode": "78704", "addr:state": "TX", "addr:street": "South Lamar Boulevard", "amenity": "cinema", "branch": "South Lamar", "brand": "Alamo Drafthouse Cinema", "brand:website": "https://drafthouse.com/", "brand:wikidata": "Q4705954", "building": "yes", "name": "Alamo Drafthouse Cinema", "website": "https://drafthouse.com/austin/theater/south-lamar", "wikidata": "Q42298382"}}, {"type": "way", "id": 1024600258, "nodes": [9447887999, 9447887996, 9447887997, 9447887998, 9447887999], "tags": {"addr:city": "Austin", "addr:country": "US", "addr:housenumber": "1201", "addr:postcode": "78704", "addr:state": "TX", "addr:street": "South Lamar Boulevard", "amenity": "restaurant", "building": "yes", "contact:facebook": "https://www.facebook.com/oddduckaustin", "contact:instagram": "https://www.instagram.com/oddduckaustin/", "contact:twitter": "https://twitter.com/oddduckaustin", "email": "foh@oddduckaustin.com", "name": "Odd Duck", "opening_hours": "Mo-Su 17:00-21:00; Fr,Sa 16:45-21:30", "phone": "+1-512-433-6521", "website": "https://oddduckaustin.com/"}}]}