{"version": 0.6, "generator": "Overpass API 0.7.62.1 084b4234", "osm3s": {"timestamp_osm_base": "2024-04-10T04:09:44Z", "copyright": "The data included in this document is from www.openstreetmap.org. The data is made available under ODbL."}, "elements": [{"type": "node", "id": 3856639542, "lat": 30.216178, "lon": -97.7982403}, {"type": "node", "id": 3856639545, "lat": 30.216234, "lon": -97.7983523}, {"type": "node", "id": 3856639548, "lat": 30.216295, "lon": -97.7981623}, {"type": "node", "id": 3856639549, "lat": 30.216297, "lon": -97.7981613}, {"type": "node", "id": 3856639550, "lat": 30.216353, "lon": -97.7982723}, {"type": "node", "id": 3856639552, "lat": 30.2164314, "lon": -97.7973415}, {"type": "node", "id": 3856639554, "lat": 30.2164424, "lon": -97.7972935}, {"type": "node", "id": 3856639555, "lat": 30.2164504, "lon": -97.7973475}, {"type": "node", "id": 3856639556, "lat": 30.2164514, "lon": -97.7976035}, {"type": "node", "id": 3856641857, "lat": 30.2164534, "lon": -97.7972975}, {"type": "node", "id": 3856641858, "lat": 30.2164534, "lon": -97.7976155}, {"type": "node", "id": 3856641859, "lat": 30.2164614, "lon": -97.7973825}, {"type": "node", "id": 3856641860, "lat": 30.2164634, "lon": -97.7976225}, {"type": "node", "id": 3856641861, "lat": 30.2164594, "lon": -97.7988131}, {"type": "node", "id": 3856641862, "lat": 30.2164674, "lon": -97.7976225}, {"type": "node", "id": 3856641863, "lat": 30.2164784, "lon": -97.7971925}, {"type": "node", "id": 3856641864, "lat": 30.2164834, "lon": -97.7987931}, {"type": "node", "id": 3856641865, "lat": 30.2164984, "lon": -97.7974085}, {"type": "node", "id": 3856641866, "lat": 30.2164914, "lon": -97.7988051}, {"type": "node", "id": 3856641867, "lat": 30.2165044, "lon": -97.7971765}, {"type": "node", "id": 3856641868, "lat": 30.2165444, "lon": -97.7975725}, {"type": "node", "id": 3856641869, "lat": 30.2165374, "lon": -97.7989351}, {"type": "node", "id": 3856641871, "lat": 30.2165554, "lon": -97.7975265}, {"type": "node", "id": 3856641872, "lat": 30.2165554, "lon": -97.7989051}, {"type": "node", "id": 3856641873, "lat": 30.2165614, "lon": -97.7989141}, {"type": "node", "id": 3856641875, "lat": 30.2165754, "lon": -97.7987321}, {"type": "node", "id": 3856641876, "lat": 30.2165884, "lon": -97.7975485}, {"type": "node", "id": 3856641877, "lat": 30.2166004, "lon": -97.7974985}, {"type": "node", "id": 3856641878, "lat": 30.2165944, "lon": -97.7987601}, {"type": "node", "id": 3856641880, "lat": 30.2166214, "lon": -97.7975545}, {"type": "node", "id": 3856641881, "lat": 30.2166204, "lon": -97.7987381}, {"type": "node", "id": 3856641883, "lat": 30.2166354, "lon": -97.7988231}, {"type": "node", "id": 3856641884, "lat": 30.2166414, "lon": -97.7988311}, {"type": "node", "id": 3856641885, "lat": 30.2166594, "lon": -97.7975475}, {"type": "node", "id": 3856641886, "lat": 30.2166674, "lon": -97.7970955}, {"type": "node", "id": 3856641887, "lat": 30.2166604, "lon": -97.7988011}, {"type": "node", "id": 3856641888, "lat": 30.2166744, "lon": -97.7970685}, {"type": "node", "id": 3856641889, "lat": 30.2166884, "lon": -97.7975315}, {"type": "node", "id": 3856641890, "lat": 30.2166904, "lon": -97.7971415}, {"type": "node", "id": 3856641891, "lat": 30.2167054, "lon": -97.7971315}, {"type": "node", "id": 3856641892, "lat": 30.2167184, "lon": -97.7975015}, {"type": "node", "id": 3856641894, "lat": 30.2167324, "lon": -97.7974785}, {"type": "node", "id": 3856641895, "lat": 30.2167394, "lon": -97.7974495}, {"type": "node", "id": 3856641902, "lat": 30.2168294, "lon": -97.7973895}, {"type": "node", "id": 3856650616, "lat": 30.217993, "lon": -97.79637, "tags": {"addr:housenumber": "5320", "addr:postcode": "78745", "addr:street": "Manchaca Road", "amenity": "cafe", "cuisine": "coffee_shop", "name": "Captain quackenbush's coffeehouse"}}, {"type": "node", "id": 3856650618, "lat": 30.217862, "lon": -97.796455, "tags": {"addr:housenumber": "5324", "addr:postcode": "78745", "addr:street": "Manchaca Road", "amenity": "cafe", "cuisine": "coffee_shop", "name": "Captain Quakenbush's Coffeehouse"}}, {"type": "node", "id": 3856650619, "lat": 30.217802, "lon": -97.796492, "tags": {"addr:housenumber": "5326", "addr:postcode": "78745", "addr:street": "Manchaca Road", "amenity": "cafe", "name": "Lazydaze"}}, {"type": "node", "id": 3856650620, "lat": 30.2178088, "lon": -97.796552, "tags": {"addr:housenumber": "5328", "addr:postcode": "78745", "addr:street": "Manchaca Road", "amenity": "cafe", "name": "lazydazy"}}, {"type": "node", "id": 5758923387, "lat": 30.2159413, "lon": -97.7967502, "tags": {"amenity": "restaurant", "cuisine": "thai", "name": "Tuk-Tuk Thai Cafe", "takeaway": "yes"}}, {"type": "node", "id": 6072235650, "lat": 30.2175689, "lon": -97.7966585, "tags": {"amenity": "cafe", "name": "Austin Java"}}, {"type": "node", "id": 11336423623, "lat": 30.215817, "lon": -97.7976628, "tags": {"amenity": "cafe", "cuisine": "coffee_shop", "name": "Jo's Coffee"}}, {"type": "node", "id": 11336507401, "lat": 30.215421, "lon": -97.7984102, "tags": {"amenity": "restaurant", "cuisine": "mexican", "name": "El secreto de abuela #2"}}, {"type": "node", "id": 11336507403, "lat": 30.215202, "lon": -97.7985232, "tags": {"amenity": "restaurant", "cuisine": "barbecue", "name": "Moreno's BBQ"}}, {"type": "way", "id": 382464754, "nodes": [3856639548, 3856639542, 3856639545, 3856639550, 3856639549, 3856639548], "tags": {"addr:city": "Austin", "addr:housenumber": "2018", "addr:postcode": "78745", "addr:state": "TX", "addr:street": "West Stassney Lane", "amenity": "restaurant", "building": "yes", "cuisine": "pizza", "height": "5.7", "name": "Conan's Pizza"}}, {"type": "way", "id": 382464756, "nodes": [3856641869, 3856641873, 3856641872, 3856641884, 3856641883, 3856641887, 3856641881, 3856641878, 3856641875, 3856641866, 3856641864, 3856641861, 3856641869], "tags": {"addr:city": "Austin", "addr:housenumber": "2308", "addr:postcode": "78745", "addr:state": "TX", "addr:street": "West Stassney Lane", "amenity": "restaurant", "building": "yes", "cuisine": "mexican;tex-mex", "height": "5.8", "name": "Taqueria Arandas #2"}}, {"type": "way", "id": 382465172, "nodes": [3856641867, 3856641863, 3856641857, 3856639554, 3856639552, 3856639555, 3856641859, 3856641865, 3856639556, 3856641858, 3856641860, 3856641862, 3856641868, 3856641871, 3856641877, 3856641876, 3856641880, 3856641885, 3856641889, 3856641892, 3856641894, 3856641895, 3856641902, 3856641891, 3856641890, 3856641886, 3856641888, 3856641867], "tags": {"addr:housenumber": "5500", "addr:street": "Manchaca Road", "amenity": "library", "building": "yes", "height": "8.1", "name": "Austin Public Library - Manchaca Road Branch", "operator": "Austin Public Library", "operator:type": "government", "operator:wikidata": "Q69491633", "wikidata": "Q69969525"}}]}