{"version": 0.6, "generator": "Overpass API 0.7.62.1 084b4234", "osm3s": {"timestamp_osm_base": "2024-04-10T03:04:56Z", "copyright": "The data included in this document is from www.openstreetmap.org. The data is made available under ODbL."}, "elements": [{"type": "node", "id": 599493152, "lat": 30.4001039, "lon": -97.748023, "tags": {"amenity": "restaurant", "cuisine": "chinese", "name": "Twin Lion"}}, {"type": "node", "id": 599493162, "lat": 30.3988329, "lon": -97.7490667, "tags": {"amenity": "restaurant", "cuisine": "italian", "name": "Brick Oven"}}, {"type": "node", "id": 1249567872, "lat": 30.3998084, "lon": -97.746813, "tags": {"amenity": "restaurant", "brand": "Gatti's Pizza", "brand:wikidata": "Q5527509", "cuisine": "pizza", "name": "Gatti's Pizza"}}, {"type": "node", "id": 1249567906, "lat": 30.3999414, "lon": -97.7485126, "tags": {"amenity": "restaurant", "cuisine": "japanese", "name": "Fujiyama"}}, {"type": "node", "id": 1249568695, "lat": 30.3999342, "lon": -97.7483653, "tags": {"amenity": "cafe", "name": "Great Harvest Bread Co."}}, {"type": "node", "id": 2530278181, "lat": 30.4019782, "lon": -97.7469768, "tags": {"amenity": "cafe", "name": "Signature Cafe"}}, {"type": "node", "id": 2530278183, "lat": 30.401983, "lon": -97.7468743, "tags": {"amenity": "cafe", "brand": "Starbucks", "brand:wikidata": "Q37158", "contact:website": "https://www.starbucks.com/store-locator/store/15485/hwy-183-braker-ln-randalls-10900-research-blvd-austin-tx-787595722-us", "cuisine": "coffee_shop", "name": "Starbucks", "official_name": "Starbucks Coffee", "takeaway": "yes"}}]}